{"type": "FeatureCollection", "features": [{"type": "Feature", "properties": {"norad_id": 26766, "name": "INTELSAT 10 (IS-10)", "group": "intelsat", "lat": -7.219899795284377, "lon": 4.763798716711693, "alt_km": 36117.481134988564, "timestamp": "2025-12-21T11:31:42.509666+00:00", "meta": {"OBJECT_NAME": "INTELSAT 10 (IS-10)", "OBJECT_ID": "2001-019A", "EPOCH": "2025-12-20T17:29:18.796128", "MEAN_MOTION": 0.9907436, "ECCENTRICITY": 0.00077475, "INCLINATION": 8.6473, "RA_OF_ASC_NODE": 61.0766, "ARG_OF_PERICENTER": 228.8053, "MEAN_ANOMALY": 166.3968, "EPHEMERIS_TYPE": 0, "CLASSIFICATION_TYPE": "U", "NORAD_CAT_ID": 26766, "ELEMENT_SET_NO": 999, "REV_AT_EPOCH": 4381, "BSTAR": 0, "MEAN_MOTION_DOT": -1.02e-06, "MEAN_MOTION_DDOT": 0}, "tle": {"line1": "1 26766U 01019A   25354.72868977 -.00000102  00000+0  00000+0 0  9993", "line2": "2 26766   8.6473  61.0766 0007747 228.8053 166.3968  0.99074360 43819"}}, "geometry": {"type": "Point", "coordinates": [4.763798716711693, -7.219899795284377]}}, {"type": "Feature", "properties": {"norad_id": 26900, "name": "INTELSAT 902 (IS-902)", "group": "intelsat", "lat": 3.701242507924188, "lon": -146.82332068020065, "alt_km": 35774.43988268031, "timestamp": "2025-12-21T11:31:42.509698+00:00", "meta": {"OBJECT_NAME": "INTELSAT 902 (IS-902)", "OBJECT_ID": "2001-039A", "EPOCH": "2025-12-15T13:09:02.081664", "MEAN_MOTION": 1.0027087, "ECCENTRICITY": 0.00045028, "INCLINATION": 5.6536, "RA_OF_ASC_NODE": 74.0372, "ARG_OF_PERICENTER": 189.6359, "MEAN_ANOMALY": 327.9329, "EPHEMERIS_TYPE": 0, "CLASSIFICATION_TYPE": "U", "NORAD_CAT_ID": 26900, "ELEMENT_SET_NO": 999, "REV_AT_EPOCH": 8885, "BSTAR": 0, "MEAN_MOTION_DOT": -2.65e-06, "MEAN_MOTION_DDOT": 0}, "tle": {"line1": "1 26900U 01039A   25349.54794076 -.00000265  00000+0  00000+0 0  9997", "line2": "2 26900   5.6536  74.0372 0004502 189.6359 327.9329  1.00270870 88858"}}, "geometry": {"type": "Point", "coordinates": [-146.82332068020065, 3.701242507924188]}}, {"type": "Feature", "properties": {"norad_id": 27380, "name": "INTELSAT 904 (IS-904)", "group": "intelsat", "lat": 2.1567500008524116, "lon": -128.1854625757428, "alt_km": 35785.90914689625, "timestamp": "2025-12-21T11:31:42.509716+00:00", "meta": {"OBJECT_NAME": "INTELSAT 904 (IS-904)", "OBJECT_ID": "2002-007A", "EPOCH": "2025-12-21T02:46:31.544832", "MEAN_MOTION": 1.00270749, "ECCENTRICITY": 0.0001855, "INCLINATION": 6.4742, "RA_OF_ASC_NODE": 71.3362, "ARG_OF_PERICENTER": 249.0229, "MEAN_ANOMALY": 139.7067, "EPHEMERIS_TYPE": 0, "CLASSIFICATION_TYPE": "U", "NORAD_CAT_ID": 27380, "ELEMENT_SET_NO": 999, "REV_AT_EPOCH": 4998, "BSTAR": 0, "MEAN_MOTION_DOT": -2.07e-06, "MEAN_MOTION_DDOT": 0}, "tle": {"line1": "1 27380U 02007A   25355.11564288 -.00000207  00000+0  00000+0 0  9992", "line2": "2 27380   6.4742  71.3362 0001855 249.0229 139.7067  1.00270749 49987"}}, "geometry": {"type": "Point", "coordinates": [-128.1854625757428, 2.1567500008524116]}}, {"type": "Feature", "properties": {"norad_id": 27426, "name": "DIRECTV 5 (TEMPO 1)", "group": "intelsat", "lat": 4.298239041523941, "lon": 153.03254034478962, "alt_km": 35792.64565204662, "timestamp": "2025-12-21T11:31:42.509731+00:00", "meta": {"OBJECT_NAME": "DIRECTV 5 (TEMPO 1)", "OBJECT_ID": "2002-023A", "EPOCH": "2025-12-20T21:15:58.348800", "MEAN_MOTION": 1.00271691, "ECCENTRICITY": 0.0003111, "INCLINATION": 4.4215, "RA_OF_ASC_NODE": 77.5576, "ARG_OF_PERICENTER": 198.1661, "MEAN_ANOMALY": 22.8633, "EPHEMERIS_TYPE": 0, "CLASSIFICATION_TYPE": "U", "NORAD_CAT_ID": 27426, "ELEMENT_SET_NO": 999, "REV_AT_EPOCH": 8633, "BSTAR": 0, "MEAN_MOTION_DOT": -3.7e-07, "MEAN_MOTION_DDOT": 0}, "tle": {"line1": "1 27426U 02023A   25354.88609200 -.00000037  00000+0  00000+0 0  9999", "line2": "2 27426   4.4215  77.5576 0003111 198.1661  22.8633  1.00271691 86335"}}, "geometry": {"type": "Point", "coordinates": [153.03254034478962, 4.298239041523941]}}, {"type": "Feature", "properties": {"norad_id": 27438, "name": "INTELSAT 905 (IS-905)", "group": "intelsat", "lat": 5.124937686313401, "lon": 125.83596993416236, "alt_km": 35794.7187040188, "timestamp": "2025-12-21T11:31:42.509745+00:00", "meta": {"OBJECT_NAME": "INTELSAT 905 (IS-905)", "OBJECT_ID": "2002-027A", "EPOCH": "2025-12-20T10:52:51.499776", "MEAN_MOTION": 1.00272487, "ECCENTRICITY": 0.00026639, "INCLINATION": 6.3037, "RA_OF_ASC_NODE": 71.9674, "ARG_OF_PERICENTER": 202.299, "MEAN_ANOMALY": 201.0262, "EPHEMERIS_TYPE": 0, "CLASSIFICATION_TYPE": "U", "NORAD_CAT_ID": 27438, "ELEMENT_SET_NO": 999, "REV_AT_EPOCH": 4957, "BSTAR": 0, "MEAN_MOTION_DOT": 1.12e-06, "MEAN_MOTION_DDOT": 0}, "tle": {"line1": "1 27438U 02027A   25354.45337384  .00000112  00000+0  00000+0 0  9993", "line2": "2 27438   6.3037  71.9674 0002663 202.2990 201.0262  1.00272487 49579"}}, "geometry": {"type": "Point", "coordinates": [125.83596993416236, 5.124937686313401]}}, {"type": "Feature", "properties": {"norad_id": 27445, "name": "GALAXY 3C (G-3C)", "group": "intelsat", "lat": 3.291038275134885, "lon": 168.36477549340918, "alt_km": 35780.85691881541, "timestamp": "2025-12-21T11:31:42.509758+00:00", "meta": {"OBJECT_NAME": "GALAXY 3C (G-3C)", "OBJECT_ID": "2002-030A", "EPOCH": "2025-12-21T04:16:38.932032", "MEAN_MOTION": 1.00272092, "ECCENTRICITY": 0.0001139, "INCLINATION": 3.2835, "RA_OF_ASC_NODE": 80.4177, "ARG_OF_PERICENTER": 79.2121, "MEAN_ANOMALY": 259.6765, "EPHEMERIS_TYPE": 0, "CLASSIFICATION_TYPE": "U", "NORAD_CAT_ID": 27445, "ELEMENT_SET_NO": 999, "REV_AT_EPOCH": 4470, "BSTAR": 0, "MEAN_MOTION_DOT": -1.32e-06, "MEAN_MOTION_DDOT": 0}, "tle": {"line1": "1 27445U 02030A   25355.17822838 -.00000132  00000+0  00000+0 0  9991", "line2": "2 27445   3.2835  80.4177 0001139  79.2121 259.6765  1.00272092 44706"}}, "geometry": {"type": "Point", "coordinates": [168.36477549340918, 3.291038275134885]}}, {"type": "Feature", "properties": {"norad_id": 27513, "name": "INTELSAT 906 (IS-906)", "group": "intelsat", "lat": -5.115793371216492, "lon": -32.654250775447416, "alt_km": 35770.36728968608, "timestamp": "2025-12-21T11:31:42.509772+00:00", "meta": {"OBJECT_NAME": "INTELSAT 906 (IS-906)", "OBJECT_ID": "2002-041A", "EPOCH": "2025-12-20T20:07:29.951904", "MEAN_MOTION": 1.00272914, "ECCENTRICITY": 0.0006313, "INCLINATION": 5.3501, "RA_OF_ASC_NODE": 75.1356, "ARG_OF_PERICENTER": 199.098, "MEAN_ANOMALY": 181.4397, "EPHEMERIS_TYPE": 0, "CLASSIFICATION_TYPE": "U", "NORAD_CAT_ID": 27513, "ELEMENT_SET_NO": 999, "REV_AT_EPOCH": 8524, "BSTAR": 0, "MEAN_MOTION_DOT": 3.2e-07, "MEAN_MOTION_DDOT": 0}, "tle": {"line1": "1 27513U 02041A   25354.83854111  .00000032  00000+0  00000+0 0  9998", "line2": "2 27513   5.3501  75.1356 0006313 199.0980 181.4397  1.00272914 85248"}}, "geometry": {"type": "Point", "coordinates": [-32.654250775447416, -5.115793371216492]}}, {"type": "Feature", "properties": {"norad_id": 27954, "name": "GALAXY 13 (HORIZONS-1)", "group": "intelsat", "lat": 0.45783331227089347, "lon": 113.17951565251538, "alt_km": 35795.37497949511, "timestamp": "2025-12-21T11:31:42.509786+00:00", "meta": {"OBJECT_NAME": "GALAXY 13 (HORIZONS-1)", "OBJECT_ID": "2003-044A", "EPOCH": "2025-12-21T00:29:59.623008", "MEAN_MOTION": 1.00270036, "ECCENTRICITY": 0.0002381, "INCLINATION": 0.9579, "RA_OF_ASC_NODE": 86.3652, "ARG_OF_PERICENTER": 178.8264, "MEAN_ANOMALY": 42.1324, "EPHEMERIS_TYPE": 0, "CLASSIFICATION_TYPE": "U", "NORAD_CAT_ID": 27954, "ELEMENT_SET_NO": 999, "REV_AT_EPOCH": 4478, "BSTAR": 0, "MEAN_MOTION_DOT": 1.55e-06, "MEAN_MOTION_DDOT": 0}, "tle": {"line1": "1 27954U 03044A   25355.02082897  .00000155  00000+0  00000+0 0  9993", "line2": "2 27954   0.9579  86.3652 0002381 178.8264  42.1324  1.00270036 44787"}}, "geometry": {"type": "Point", "coordinates": [113.17951565251538, 0.45783331227089347]}}, {"type": "Feature", "properties": {"norad_id": 28358, "name": "INTELSAT 10-02", "group": "intelsat", "lat": -0.020304668736407766, "lon": -97.75031956026308, "alt_km": 35782.84561306057, "timestamp": "2025-12-21T11:31:42.509807+00:00", "meta": {"OBJECT_NAME": "INTELSAT 10-02", "OBJECT_ID": "2004-022A", "EPOCH": "2025-12-21T02:55:15.707712", "MEAN_MOTION": 1.00272896, "ECCENTRICITY": 9.82e-05, "INCLINATION": 0.0211, "RA_OF_ASC_NODE": 73.8593, "ARG_OF_PERICENTER": 233.9977, "MEAN_ANOMALY": 184.9424, "EPHEMERIS_TYPE": 0, "CLASSIFICATION_TYPE": "U", "NORAD_CAT_ID": 28358, "ELEMENT_SET_NO": 999, "REV_AT_EPOCH": 7877, "BSTAR": 0, "MEAN_MOTION_DOT": 1.3e-07, "MEAN_MOTION_DDOT": 0}, "tle": {"line1": "1 28358U 04022A   25355.12170958  .00000013  00000+0  00000+0 0  9999", "line2": "2 28358   0.0211  73.8593 0000982 233.9977 184.9424  1.00272896 78772"}}, "geometry": {"type": "Point", "coordinates": [-97.75031956026308, -0.020304668736407766]}}, {"type": "Feature", "properties": {"norad_id": 28626, "name": "XM-3 (RHYTHM)", "group": "intelsat", "lat": -0.19832369504804528, "lon": -24.03541523628441, "alt_km": 36153.21420020861, "timestamp": "2025-12-21T11:31:42.509837+00:00", "meta": {"OBJECT_NAME": "XM-3 (RHYTHM)", "OBJECT_ID": "2005-008A", "EPOCH": "2025-12-21T03:16:43.654368", "MEAN_MOTION": 0.98949883, "ECCENTRICITY": 0.0001963, "INCLINATION": 0.1953, "RA_OF_ASC_NODE": 82.0029, "ARG_OF_PERICENTER": 277.8212, "MEAN_ANOMALY": 213.7097, "EPHEMERIS_TYPE": 0, "CLASSIFICATION_TYPE": "U", "NORAD_CAT_ID": 28626, "ELEMENT_SET_NO": 999, "REV_AT_EPOCH": 4083, "BSTAR": 0, "MEAN_MOTION_DOT": 8.2e-07, "MEAN_MOTION_DDOT": 0}, "tle": {"line1": "1 28626U 05008A   25355.13661637  .00000082  00000+0  00000+0 0  9998", "line2": "2 28626   0.1953  82.0029 0001963 277.8212 213.7097  0.98949883 40835"}}, "geometry": {"type": "Point", "coordinates": [-24.03541523628441, -0.19832369504804528]}}]}